{
  "type": "FeatureCollection",
  "features": [
    {
      "type": "Feature",
      "properties": {
        "norad_id": 66640,
        "name": "STARLINK-35921",
        "group": "last-30-days",
        "lat": -19.406651779303846,
        "lon": 17.456438178171158,
        "alt_km": 422.33621870071875,
        "timestamp": "2025-12-13T18:50:03.173534+00:00",
        "meta_object_name": "STARLINK-35921",
        "meta_object_id": "2025-271Z",
        "meta_epoch": "2025-12-13T06:00:02.000160",
        "meta_mean_motion": 15.49374384,
        "meta_eccentricity": 0.00010324,
        "meta_inclination": 53.1599,
        "meta_ra_of_asc_node": 184.6994,
        "meta_arg_of_pericenter": 91.4388,
        "meta_mean_anomaly": 8.8379,
        "meta_ephemeris_type": 0,
        "meta_classification_type": "U",
        "meta_norad_cat_id": 66640,
        "meta_element_set_no": 999,
        "meta_rev_at_epoch": 432,
        "meta_bstar": -0.0028580368,
        "meta_mean_motion_dot": -0.00156617,
        "meta_mean_motion_ddot": 0,
        "tle_line1": "1 66640U 25271Z   25347.25002315 -.00156617  00000+0 -28580-2 0  9990",
        "tle_line2": "2 66640  53.1599 184.6994 0001032  91.4388   8.8379 15.49374384  4328"
      },
      "geometry": {
        "type": "Point",
        "coordinates": [
          17.456438178171158,
          -19.406651779303846
        ]
      }
    },
    {
      "type": "Feature",
      "properties": {
        "norad_id": 66641,
        "name": "STARLINK-35923",
        "group": "last-30-days",
        "lat": -25.236781910869453,
        "lon": 22.818882991140583,
        "alt_km": 422.7888874651899,
        "timestamp": "2025-12-13T18:50:03.173544+00:00",
        "meta_object_name": "STARLINK-35923",
        "meta_object_id": "2025-271AA",
        "meta_epoch": "2025-12-13T06:00:02.000160",
        "meta_mean_motion": 15.49327761,
        "meta_eccentricity": 0.00010821,
        "meta_inclination": 53.1601,
        "meta_ra_of_asc_node": 184.6822,
        "meta_arg_of_pericenter": 94.6411,
        "meta_mean_anomaly": 13.3199,
        "meta_ephemeris_type": 0,
        "meta_classification_type": "U",
        "meta_norad_cat_id": 66641,
        "meta_element_set_no": 999,
        "meta_rev_at_epoch": 432,
        "meta_bstar": -0.0015642057,
        "meta_mean_motion_dot": -0.00086543,
        "meta_mean_motion_ddot": 0,
        "tle_line1": "1 66641U 25271AA  25347.25002315 -.00086543  00000+0 -15642-2 0  9996",
        "tle_line2": "2 66641  53.1601 184.6822 0001082  94.6411  13.3199 15.49327761  4328"
      },
      "geometry": {
        "type": "Point",
        "coordinates": [
          22.818882991140583,
          -25.236781910869453
        ]
      }
    },
    {
      "type": "Feature",
      "properties": {
        "norad_id": 66642,
        "name": "STARLINK-35926",
        "group": "last-30-days",
        "lat": -23.737628346781722,
        "lon": 21.379710419415975,
        "alt_km": 422.38444747320045,
        "timestamp": "2025-12-13T18:50:03.173556+00:00",
        "meta_object_name": "STARLINK-35926",
        "meta_object_id": "2025-271AB",
        "meta_epoch": "2025-12-13T06:00:02.000160",
        "meta_mean_motion": 15.49254788,
        "meta_eccentricity": 5.357e-05,
        "meta_inclination": 53.16,
        "meta_ra_of_asc_node": 184.6871,
        "meta_arg_of_pericenter": 64.0906,
        "meta_mean_anomaly": 41.8651,
        "meta_ephemeris_type": 0,
        "meta_classification_type": "U",
        "meta_norad_cat_id": 66642,
        "meta_element_set_no": 999,
        "meta_rev_at_epoch": 408,
        "meta_bstar": 0.0012000431,
        "meta_mean_motion_dot": 0.00066737,
        "meta_mean_motion_ddot": 0,
        "tle_line1": "1 66642U 25271AB  25347.25002315  .00066737  00000+0  12000-2 0  9993",
        "tle_line2": "2 66642  53.1600 184.6871 0000535  64.0906  41.8651 15.49254788  4084"
      },
      "geometry": {
        "type": "Point",
        "coordinates": [
          21.379710419415975,
          -23.737628346781722
        ]
      }
    },
    {
      "type": "Feature",
      "properties": {
        "norad_id": 66643,
        "name": "STARLINK-35918",
        "group": "last-30-days",
        "lat": -20.87908482324934,
        "lon": 18.755249896798013,
        "alt_km": 422.4543494678783,
        "timestamp": "2025-12-13T18:50:03.173567+00:00",
        "meta_object_name": "STARLINK-35918",
        "meta_object_id": "2025-271AC",
        "meta_epoch": "2025-12-13T06:00:02.000160",
        "meta_mean_motion": 15.49364673,
        "meta_eccentricity": 9.686e-05,
        "meta_inclination": 53.1601,
        "meta_ra_of_asc_node": 184.6955,
        "meta_arg_of_pericenter": 91.9843,
        "meta_mean_anomaly": 10.212,
        "meta_ephemeris_type": 0,
        "meta_classification_type": "U",
        "meta_norad_cat_id": 66643,
        "meta_element_set_no": 999,
        "meta_rev_at_epoch": 432,
        "meta_bstar": -0.0025904162,
        "meta_mean_motion_dot": -0.00142203,
        "meta_mean_motion_ddot": 0,
        "tle_line1": "1 66643U 25271AC  25347.25002315 -.00142203  00000+0 -25904-2 0  9996",
        "tle_line2": "2 66643  53.1601 184.6955 0000968  91.9843  10.2120 15.49364673  4321"
      },
      "geometry": {
        "type": "Point",
        "coordinates": [
          18.755249896798013,
          -20.87908482324934
        ]
      }
    },
    {
      "type": "Feature",
      "properties": {
        "norad_id": 66644,
        "name": "STARLINK-35938",
        "group": "last-30-days",
        "lat": -22.28490184730448,
        "lon": 20.027774249743498,
        "alt_km": 422.28861348710507,
        "timestamp": "2025-12-13T18:50:03.173577+00:00",
        "meta_object_name": "STARLINK-35938",
        "meta_object_id": "2025-271AD",
        "meta_epoch": "2025-12-13T06:00:02.000160",
        "meta_mean_motion": 15.4925431,
        "meta_eccentricity": 4.991e-05,
        "meta_inclination": 53.1598,
        "meta_ra_of_asc_node": 184.6914,
        "meta_arg_of_pericenter": 50.6052,
        "meta_mean_anomaly": 53.4368,
        "meta_ephemeris_type": 0,
        "meta_classification_type": "U",
        "meta_norad_cat_id": 66644,
        "meta_element_set_no": 999,
        "meta_rev_at_epoch": 432,
        "meta_bstar": 0.0011821345,
        "meta_mean_motion_dot": 0.00065725,
        "meta_mean_motion_ddot": 0,
        "tle_line1": "1 66644U 25271AD  25347.25002315  .00065725  00000+0  11821-2 0  9991",
        "tle_line2": "2 66644  53.1598 184.6914 0000499  50.6052  53.4368 15.49254310  4324"
      },
      "geometry": {
        "type": "Point",
        "coordinates": [
          20.027774249743498,
          -22.28490184730448
        ]
      }
    },
    {
      "type": "Feature",
      "properties": {
        "norad_id": 66645,
        "name": "SHENZHOU-22",
        "group": "last-30-days",
        "lat": -39.62146136716857,
        "lon": -100.00300807683666,
        "alt_km": 397.45667169821627,
        "timestamp": "2025-12-13T18:50:03.173587+00:00",
        "meta_object_name": "SHENZHOU-22",
        "meta_object_id": "2025-272A",
        "meta_epoch": "2025-12-13T06:59:15.159552",
        "meta_mean_motion": 15.59202655,
        "meta_eccentricity": 0.00082357,
        "meta_inclination": 41.4684,
        "meta_ra_of_asc_node": 13.3607,
        "meta_arg_of_pericenter": 35.4193,
        "meta_mean_anomaly": 324.7191,
        "meta_ephemeris_type": 0,
        "meta_classification_type": "U",
        "meta_norad_cat_id": 66645,
        "meta_element_set_no": 999,
        "meta_rev_at_epoch": 26357,
        "meta_bstar": 0.00037863929,
        "meta_mean_motion_dot": 0.00030374,
        "meta_mean_motion_ddot": 0,
        "tle_line1": "1 66645U 25272A   25347.29114768  .00030374  00000+0  37864-3 0  9991",
        "tle_line2": "2 66645  41.4684  13.3607 0008235  35.4193 324.7191 15.59202655263579"
      },
      "geometry": {
        "type": "Point",
        "coordinates": [
          -100.00300807683666,
          -39.62146136716857
        ]
      }
    },
    {
      "type": "Feature",
      "properties": {
        "norad_id": 66647,
        "name": "COSMOS 2597 (RODNIK-S 22)",
        "group": "last-30-days",
        "lat": 78.30864007844629,
        "lon": 66.25757630438459,
        "alt_km": 1497.177992547231,
        "timestamp": "2025-12-13T18:50:03.173598+00:00",
        "meta_object_name": "COSMOS 2597 (RODNIK-S 22)",
        "meta_object_id": "2025-273A",
        "meta_epoch": "2025-12-13T02:50:08.810592",
        "meta_mean_motion": 12.41951311,
        "meta_eccentricity": 0.00078698,
        "meta_inclination": 82.4988,
        "meta_ra_of_asc_node": 286.2139,
        "meta_arg_of_pericenter": 288.3453,
        "meta_mean_anomaly": 71.677,
        "meta_ephemeris_type": 0,
        "meta_classification_type": "U",
        "meta_norad_cat_id": 66647,
        "meta_element_set_no": 999,
        "meta_rev_at_epoch": 218,
        "meta_bstar": 7.1733352e-05,
        "meta_mean_motion_dot": 2e-07,
        "meta_mean_motion_ddot": 0,
        "tle_line1": "1 66647U 25273A   25347.11815753  .00000020  00000+0  71733-4 0  9996",
        "tle_line2": "2 66647  82.4988 286.2139 0007869 288.3453  71.6770 12.41951311  2181"
      },
      "geometry": {
        "type": "Point",
        "coordinates": [
          66.25757630438459,
          78.30864007844629
        ]
      }
    }
  ]
}